{
  "type": "FeatureCollection",
  "features": [
    {
      "type": "Feature",
      "properties": {
        "norad_id": 32393,
        "name": "COSMOS 2434 (721)",
        "group": "gnss",
        "lat": 14.297550217679213,
        "lon": 11.057754614989442,
        "alt_km": 19129.167957077632,
        "timestamp": "2025-12-15T19:00:45.598014+00:00",
        "meta_object_name": "COSMOS 2434 (721)",
        "meta_object_id": "2007-065A",
        "meta_epoch": "2025-12-10T15:35:17.035872",
        "meta_mean_motion": 2.13101152,
        "meta_eccentricity": 0.0004304,
        "meta_inclination": 64.3147,
        "meta_ra_of_asc_node": 198.2738,
        "meta_arg_of_pericenter": 71.148,
        "meta_mean_anomaly": 107.63,
        "meta_ephemeris_type": 0,
        "meta_classification_type": "U",
        "meta_norad_cat_id": 32393,
        "meta_element_set_no": 999,
        "meta_rev_at_epoch": 13975,
        "meta_bstar": 0,
        "meta_mean_motion_dot": 4.8e-07,
        "meta_mean_motion_ddot": 0,
        "tle_line1": "1 32393U 07065A   25344.64950273  .00000048  00000+0  00000+0 0  9992",
        "tle_line2": "2 32393  64.3147 198.2738 0004304  71.1480 107.6300  2.13101152139755"
      },
      "geometry": {
        "type": "Point",
        "coordinates": [
          11.057754614989442,
          14.297550217679213
        ]
      }
    },
    {
      "type": "Feature",
      "properties": {
        "norad_id": 32395,
        "name": "COSMOS 2436 (723)",
        "group": "gnss",
        "lat": -53.49734051832119,
        "lon": 157.62480747225024,
        "alt_km": 19122.30060711699,
        "timestamp": "2025-12-15T19:00:45.598026+00:00",
        "meta_object_name": "COSMOS 2436 (723)",
        "meta_object_id": "2007-065C",
        "meta_epoch": "2025-12-08T02:01:11.627904",
        "meta_mean_motion": 2.13100022,
        "meta_eccentricity": 0.00177472,
        "meta_inclination": 64.3236,
        "meta_ra_of_asc_node": 198.4308,
        "meta_arg_of_pericenter": 9.2257,
        "meta_mean_anomaly": 134.6131,
        "meta_ephemeris_type": 0,
        "meta_classification_type": "U",
        "meta_norad_cat_id": 32395,
        "meta_element_set_no": 999,
        "meta_rev_at_epoch": 13965,
        "meta_bstar": 0,
        "meta_mean_motion_dot": 5.1e-07,
        "meta_mean_motion_ddot": 0,
        "tle_line1": "1 32395U 07065C   25342.08416236  .00000051  00000+0  00000+0 0  9990",
        "tle_line2": "2 32395  64.3236 198.4308 0017747   9.2257 134.6131  2.13100022139656"
      },
      "geometry": {
        "type": "Point",
        "coordinates": [
          157.62480747225024,
          -53.49734051832119
        ]
      }
    },
    {
      "type": "Feature",
      "properties": {
        "norad_id": 32711,
        "name": "GPS BIIRM-6 (PRN 07)",
        "group": "gnss",
        "lat": 54.42578420149137,
        "lon": -115.09852755931277,
        "alt_km": 20666.81018993263,
        "timestamp": "2025-12-15T19:00:45.598038+00:00",
        "meta_object_name": "GPS BIIRM-6 (PRN 07)",
        "meta_object_id": "2008-012A",
        "meta_epoch": "2025-12-14T16:02:03.484896",
        "meta_mean_motion": 2.0056573,
        "meta_eccentricity": 0.0202527,
        "meta_inclination": 54.4772,
        "meta_ra_of_asc_node": 157.2959,
        "meta_arg_of_pericenter": 244.9733,
        "meta_mean_anomaly": 112.9236,
        "meta_ephemeris_type": 0,
        "meta_classification_type": "U",
        "meta_norad_cat_id": 32711,
        "meta_element_set_no": 999,
        "meta_rev_at_epoch": 13005,
        "meta_bstar": 0,
        "meta_mean_motion_dot": 9.8e-07,
        "meta_mean_motion_ddot": 0,
        "tle_line1": "1 32711U 08012A   25348.66809589  .00000098  00000+0  00000+0 0  9993",
        "tle_line2": "2 32711  54.4772 157.2959 0202527 244.9733 112.9236  2.00565730130054"
      },
      "geometry": {
        "type": "Point",
        "coordinates": [
          -115.09852755931277,
          54.42578420149137
        ]
      }
    },
    {
      "type": "Feature",
      "properties": {
        "norad_id": 35752,
        "name": "GPS BIIRM-8 (PRN 05)",
        "group": "gnss",
        "lat": 51.349659200971494,
        "lon": 157.5037752065439,
        "alt_km": 20054.323184460634,
        "timestamp": "2025-12-15T19:00:45.598049+00:00",
        "meta_object_name": "GPS BIIRM-8 (PRN 05)",
        "meta_object_id": "2009-043A",
        "meta_epoch": "2025-12-14T15:32:04.041600",
        "meta_mean_motion": 2.00565642,
        "meta_eccentricity": 0.00517621,
        "meta_inclination": 56.0923,
        "meta_ra_of_asc_node": 34.7078,
        "meta_arg_of_pericenter": 81.8798,
        "meta_mean_anomaly": 280.9533,
        "meta_ephemeris_type": 0,
        "meta_classification_type": "U",
        "meta_norad_cat_id": 35752,
        "meta_element_set_no": 999,
        "meta_rev_at_epoch": 11966,
        "meta_bstar": 0,
        "meta_mean_motion_dot": -9.3e-07,
        "meta_mean_motion_ddot": 0,
        "tle_line1": "1 35752U 09043A   25348.64726900 -.00000093  00000+0  00000+0 0  9995",
        "tle_line2": "2 35752  56.0923  34.7078 0051762  81.8798 280.9533  2.00565642119663"
      },
      "geometry": {
        "type": "Point",
        "coordinates": [
          157.5037752065439,
          51.349659200971494
        ]
      }
    },
    {
      "type": "Feature",
      "properties": {
        "norad_id": 36111,
        "name": "COSMOS 2456 (730)",
        "group": "gnss",
        "lat": -34.6069118506985,
        "lon": 58.40189108097544,
        "alt_km": 19126.976843365206,
        "timestamp": "2025-12-15T19:00:45.598061+00:00",
        "meta_object_name": "COSMOS 2456 (730)",
        "meta_object_id": "2009-070A",
        "meta_epoch": "2025-12-14T09:56:44.941056",
        "meta_mean_motion": 2.13103612,
        "meta_eccentricity": 0.00031175,
        "meta_inclination": 64.9016,
        "meta_ra_of_asc_node": 77.2804,
        "meta_arg_of_pericenter": 298.1789,
        "meta_mean_anomaly": 45.9889,
        "meta_ephemeris_type": 0,
        "meta_classification_type": "U",
        "meta_norad_cat_id": 36111,
        "meta_element_set_no": 999,
        "meta_rev_at_epoch": 12448,
        "meta_bstar": 0,
        "meta_mean_motion_dot": -5.7e-07,
        "meta_mean_motion_ddot": 0,
        "tle_line1": "1 36111U 09070A   25348.41440904 -.00000057  00000+0  00000+0 0  9997",
        "tle_line2": "2 36111  64.9016  77.2804 0003117 298.1789  45.9889  2.13103612124485"
      },
      "geometry": {
        "type": "Point",
        "coordinates": [
          58.40189108097544,
          -34.6069118506985
        ]
      }
    },
    {
      "type": "Feature",
      "properties": {
        "norad_id": 36112,
        "name": "COSMOS 2457 (733)",
        "group": "gnss",
        "lat": 64.90758662271489,
        "lon": 167.65236233484612,
        "alt_km": 19118.605025871326,
        "timestamp": "2025-12-15T19:00:45.598072+00:00",
        "meta_object_name": "COSMOS 2457 (733)",
        "meta_object_id": "2009-070B",
        "meta_epoch": "2025-12-13T07:58:58.732608",
        "meta_mean_motion": 2.13100875,
        "meta_eccentricity": 0.00047033,
        "meta_inclination": 64.8861,
        "meta_ra_of_asc_node": 77.165,
        "meta_arg_of_pericenter": 158.447,
        "meta_mean_anomaly": 204.9439,
        "meta_ephemeris_type": 0,
        "meta_classification_type": "U",
        "meta_norad_cat_id": 36112,
        "meta_element_set_no": 999,
        "meta_rev_at_epoch": 12447,
        "meta_bstar": 0,
        "meta_mean_motion_dot": -5.1e-07,
        "meta_mean_motion_ddot": 0,
        "tle_line1": "1 36112U 09070B   25347.33262422 -.00000051  00000+0  00000+0 0  9999",
        "tle_line2": "2 36112  64.8861  77.1650 0004703 158.4470 204.9439  2.13100875124473"
      },
      "geometry": {
        "type": "Point",
        "coordinates": [
          167.65236233484612,
          64.90758662271489
        ]
      }
    },
    {
      "type": "Feature",
      "properties": {
        "norad_id": 36402,
        "name": "COSMOS 2460 (732)",
        "group": "gnss",
        "lat": 65.51664361233914,
        "lon": 50.27359640801583,
        "alt_km": 19129.43099623259,
        "timestamp": "2025-12-15T19:00:45.598085+00:00",
        "meta_object_name": "COSMOS 2460 (732)",
        "meta_object_id": "2010-007C",
        "meta_epoch": "2025-12-13T13:53:49.157952",
        "meta_mean_motion": 2.13106108,
        "meta_eccentricity": 0.00026771,
        "meta_inclination": 65.5289,
        "meta_ra_of_asc_node": 320.7443,
        "meta_arg_of_pericenter": 274.1475,
        "meta_mean_anomaly": 277.7778,
        "meta_ephemeris_type": 0,
        "meta_classification_type": "U",
        "meta_norad_cat_id": 36402,
        "meta_element_set_no": 999,
        "meta_rev_at_epoch": 12277,
        "meta_bstar": 0,
        "meta_mean_motion_dot": -6.1e-07,
        "meta_mean_motion_ddot": 0,
        "tle_line1": "1 36402U 10007C   25347.57904118 -.00000061  00000+0  00000+0 0  9995",
        "tle_line2": "2 36402  65.5289 320.7443 0002677 274.1475 277.7778  2.13106108122773"
      },
      "geometry": {
        "type": "Point",
        "coordinates": [
          50.27359640801583,
          65.51664361233914
        ]
      }
    }
  ]
}